YAOGAN-30 11B           
1 49028U 21065C   26068.68875565  .00004364  00000+0  32720-3 0  9992
2 49028  34.9931 159.0081 0000960 264.9738  95.0861 15.02134262253658
STARLINK-30463          
1 57909U 23146U   26068.11731699 -.00000609  00000+0 -29994-4 0  9998
2 57909  43.0040 316.1563 0001111 265.2503  94.8213 15.02533398135921
