[{"OBJECT_NAME":"YAOGAN-30 11B","OBJECT_ID":"2021-065C","EPOCH":"2026-03-09T16:31:48.488160","MEAN_MOTION":15.02134262,"ECCENTRICITY":9.601e-5,"INCLINATION":34.9931,"RA_OF_ASC_NODE":159.0081,"ARG_OF_PERICENTER":264.9738,"MEAN_ANOMALY":95.0861,"EPHEMERIS_TYPE":0,"CLASSIFICATION_TYPE":"U","NORAD_CAT_ID":49028,"ELEMENT_SET_NO":999,"REV_AT_EPOCH":25365,"BSTAR":0.00032720228,"MEAN_MOTION_DOT":4.364e-5,"MEAN_MOTION_DDOT":0},{"OBJECT_NAME":"STARLINK-30463","OBJECT_ID":"2023-146U","EPOCH":"2026-03-09T02:48:56.187936","MEAN_MOTION":15.02533398,"ECCENTRICITY":0.00011113,"INCLINATION":43.004,"RA_OF_ASC_NODE":316.1563,"ARG_OF_PERICENTER":265.2503,"MEAN_ANOMALY":94.8213,"EPHEMERIS_TYPE":0,"CLASSIFICATION_TYPE":"U","NORAD_CAT_ID":57909,"ELEMENT_SET_NO":999,"REV_AT_EPOCH":13592,"BSTAR":-2.9993693e-5,"MEAN_MOTION_DOT":-6.09e-6,"MEAN_MOTION_DDOT":0}]
